GSLV R/B                
1 54149U 22138AN  26115.58200675  .00002070  00000+0  17671-3 0  9990
2 54149  87.3816 150.6504 0020612 348.2771  11.7978 14.97024660190947
XRISM                   
1 57800U 23137A   26115.78270183  .00005399  00000+0  30111-3 0  9991
2 57800  31.0029 338.9380 0007528 155.2995 204.8005 15.11999597144924
ACS3                    
1 59588U 24077B   26115.83846949  .00038930  00000+0  29970-1 0  9991
2 59588  97.1854  46.3558 0061471 346.0179  13.9282 13.91876309100756
HTV-X1                  
1 66174U 25241A   26112.99220554  .00004413  00000+0  14900-3 0  9994
2 66174  51.6353 219.4042 0007821 344.1053  15.9682 15.32728944 27734
SZ-21 MODULE            
1 66515U 25246C   26114.73427522  .00034872  00000+0  25922-3 0  9994
2 66515  41.4730 279.1403 0004099 320.8652  39.1894 15.72087630 25312
